{"fetched_at":"2026-03-29T16:36:15Z","count":15609,"tles":[{"name":"STARLINK-34839","line1":"1 65703U 25212AD  26087.74601319  .00028841  00000+0  98181-3 0  9999","line2":"2 65703  53.1585 256.9771 0001036  88.8727 271.2393 15.30210053 30164","category":"Starlink"}]}